{
  "norad_id": 42801,
  "name": "BULGARIASAT-1",
  "history": [
    {
      "epoch": "2026-03-28T14:47:42.749664",
      "apogee_km": 35799.12107328675,
      "perigee_km": 35772.59991886171,
      "latitude_deg": -0.03320862388644267,
      "longitude_deg": -40.719167039729655,
      "semi_major_axis_km": 42163.99749607423,
      "eccentricity": 0.0003145,
      "inclination_deg": 0.0336,
      "raan_deg": 96.3506,
      "arg_perigee_deg": 286.9464,
      "mean_anomaly_deg": 26.5477,
      "mean_motion_rev_day": 1.00274405
    },
    {
      "epoch": "2026-03-29T04:29:06.465696",
      "apogee_km": 35799.05332435711,
      "perigee_km": 35771.74821729672,
      "latitude_deg": 0.032041295118532515,
      "longitude_deg": 14.040517440298572,
      "semi_major_axis_km": 42163.537770826915,
      "eccentricity": 0.0003238,
      "inclination_deg": 0.0356,
      "raan_deg": 96.1536,
      "arg_perigee_deg": 281.0751,
      "mean_anomaly_deg": 238.5265,
      "mean_motion_rev_day": 1.00276045
    }
  ]
}